CCSDS_OMM_VERS,COMMENT,CREATION_DATE,ORIGINATOR,OBJECT_NAME,OBJECT_ID,CENTER_NAME,REF_FRAME,TIME_SYSTEM,MEAN_ELEMENT_THEORY,EPOCH,MEAN_MOTION,ECCENTRICITY,INCLINATION,RA_OF_ASC_NODE,ARG_OF_PERICENTER,MEAN_ANOMALY,EPHEMERIS_TYPE,CLASSIFICATION_TYPE,NORAD_CAT_ID,ELEMENT_SET_NO,REV_AT_EPOCH,BSTAR,MEAN_MOTION_DOT,MEAN_MOTION_DDOT,SEMIMAJOR_AXIS,PERIOD,APOAPSIS,PERIAPSIS,OBJECT_TYPE,RCS_SIZE,COUNTRY_CODE,LAUNCH_DATE,SITE,DECAY_DATE,FILE,GP_ID,TLE_LINE0,TLE_LINE1,TLE_LINE2
"2.0","GENERATED VIA SPACE-TRACK.ORG API","2020-11-12T18:00:49","18 SPCS","COSMOS 1818","1987-011A","EARTH","TEME","UTC","SGP4","2020-11-12T10:59:10.319712","14.31460359","0.00160790","65.0109","209.0071","285.9407","73.9905","0","U","17369","999","81644","0.00000757410000","-0.00000080","0.0000000000000","7164.990","100.596","798.376","775.334","PAYLOAD","LARGE","CIS","1987-02-01","TTMTR","","2875085","165381691","0 COSMOS 1818","1 17369U 87011A   20317.45775833 -.00000080 +00000+0 +75741-5 0  9995","2 17369  65.0109 209.0071 0016079 285.9407  73.9905 14.31460359816448"
"2.0","GENERATED VIA SPACE-TRACK.ORG API","2020-11-12T18:00:49","18 SPCS","IRIDIUM 136","2017-061H","EARTH","TEME","UTC","SGP4","2020-11-12T07:00:09.314208","14.34218188","0.00016560","86.3976","158.9872","85.8780","274.2605","0","U","42962","999","16202","0.00003138600000","0.00000108","0.0000000000000","7155.802","100.403","778.852","776.482","PAYLOAD","LARGE","US","2017-10-09","AFWTR","","2875085","165392528","0 IRIDIUM 136","1 42962U 17061H   20317.29177447 +.00000108 +00000+0 +31386-4 0  9995","2 42962  86.3976 158.9872 0001656  85.8780 274.2605 14.34218188162025"
"2.0","GENERATED VIA SPACE-TRACK.ORG API","2020-11-12T04:51:34","18 SPCS","IRIDIUM 136","2017-061H","EARTH","TEME","UTC","SGP4","2020-11-11T15:55:57.331200","14.34218091","0.00016610","86.3977","159.2495","85.2226","274.9160","0","U","42962","999","16193","0.00003018900000","0.00000104","0.0000000000000","7155.803","100.403","778.856","776.479","PAYLOAD","LARGE","US","2017-10-09","AFWTR","","2875084","165371661","0 IRIDIUM 136","1 42962U 17061H   20316.66385800 +.00000104 +00000+0 +30189-4 0  9995","2 42962  86.3977 159.2495 0001661  85.2226 274.9160 14.34218091161931"
"2.0","GENERATED VIA SPACE-TRACK.ORG API","2020-11-12T04:51:34","18 SPCS","COSMOS 1818","1987-011A","EARTH","TEME","UTC","SGP4","2020-11-11T09:50:07.052640","14.31460280","0.00160560","65.0110","211.9415","285.9280","74.0035","0","U","17369","999","81629","0.00000769220000","-0.00000080","0.0000000000000","7164.990","100.596","798.359","775.351","PAYLOAD","LARGE","CIS","1987-02-01","TTMTR","","2875084","165360111","0 COSMOS 1818","1 17369U 87011A   20316.40980385 -.00000080 +00000+0 +76922-5 0  9991","2 17369  65.0110 211.9415 0016056 285.9280  74.0035 14.31460280816290"
"2.0","GENERATED VIA SPACE-TRACK.ORG API","2020-11-11T16:36:54","18 SPCS","COSMOS 1818","1987-011A","EARTH","TEME","UTC","SGP4","2020-11-11T03:07:42.184704","14.31460201","0.00160530","65.0110","212.7240","285.8973","74.0342","0","U","17369","999","81625","0.00000536520000","-0.00000086","0.0000000000000","7164.991","100.596","798.358","775.354","PAYLOAD","LARGE","CIS","1987-02-01","TTMTR","","2875082","165337404","0 COSMOS 1818","1 17369U 87011A   20316.13034936 -.00000086 +00000+0 +53652-5 0  9994","2 17369  65.0110 212.7240 0016053 285.8973  74.0342 14.31460201816250"
"2.0","GENERATED VIA SPACE-TRACK.ORG API","2020-11-11T16:36:54","18 SPCS","IRIDIUM 136","2017-061H","EARTH","TEME","UTC","SGP4","2020-11-11T02:32:13.344000","14.34217992","0.00016630","86.3977","159.4826","84.6111","275.5275","0","U","42962","999","16185","0.00002888300000","0.00000101","0.0000000000000","7155.803","100.403","778.858","776.478","PAYLOAD","LARGE","US","2017-10-09","AFWTR","","2875082","165351648","0 IRIDIUM 136","1 42962U 17061H   20316.10571000 +.00000101 +00000+0 +28883-4 0  9998","2 42962  86.3977 159.4826 0001663  84.6111 275.5275 14.34217992161853"
"2.0","GENERATED VIA SPACE-TRACK.ORG API","2020-11-08T05:03:59","18 SPCS","IRIDIUM 136","2017-061H","EARTH","TEME","UTC","SGP4","2020-11-07T19:50:17.350080","14.34217537","0.00016840","86.3984","160.8523","80.8283","279.3103","0","U","42962","999","16138","0.00002230600000","0.00000082","0.0000000000000","7155.804","100.403","778.874","776.464","PAYLOAD","LARGE","US","2017-10-09","AFWTR","","2875047","165126359","0 IRIDIUM 136","1 42962U 17061H   20312.82658970 +.00000082 +00000-0 +22306-4 0  9998","2 42962 086.3984 160.8523 0001684 080.8283 279.3103 14.34217537161387"
"2.0","GENERATED VIA SPACE-TRACK.ORG API","2020-11-13T04:53:41","18 SPCS","COSMOS 1818","1987-011A","EARTH","TEME","UTC","SGP4","2020-11-07T18:38:44.477952","14.31460187","0.00117890","65.0085","222.1149","291.7068","68.2768","0","U","17369","999","81605","0.00001130300000","-0.00000070","0.0000000000000","7164.991","100.596","795.302","778.409","PAYLOAD","LARGE","CIS","1987-02-01","TTMTR","","2875087","165403212","0 COSMOS 1818","1 17369U 87011A   20312.77690368 -.00000070 +00000-0 +11303-4 0  9997","2 17369 065.0085 222.1149 0011789 291.7068 068.2768 14.31460187816054"
"2.0","GENERATED VIA SPACE-TRACK.ORG API","2020-11-08T05:03:59","18 SPCS","COSMOS 1818","1987-011A","EARTH","TEME","UTC","SGP4","2020-11-07T18:38:43.667520","14.31460155","0.00159660","65.0114","222.1139","285.8546","74.0778","0","U","17369","999","81577","-0.00000013718000","-0.00000101","0.0000000000000","7164.991","100.596","798.295","775.416","PAYLOAD","LARGE","CIS","1987-02-01","TTMTR","","2875047","165113306","0 COSMOS 1818","1 17369U 87011A   20312.77689430 -.00000101 +00000-0 -13718-6 0  9995","2 17369 065.0114 222.1139 0015966 285.8546 074.0778 14.31460155815771"
"2.0","GENERATED VIA SPACE-TRACK.ORG API","2020-11-07T14:36:10","18 SPCS","IRIDIUM 136","2017-061H","EARTH","TEME","UTC","SGP4","2020-11-07T08:07:01.355232","14.34217293","0.00017120","86.3983","161.0562","80.9320","279.2069","0","U","42962","999","16131","0.00002252000000","0.00000083","0.0000000000000","7155.805","100.403","778.895","776.445","PAYLOAD","LARGE","US","2017-10-09","AFWTR","","2874422","165073894","0 IRIDIUM 136","1 42962U 17061H   20312.33821013  .00000083  00000-0  22520-4 0  9993","2 42962  86.3983 161.0562 0001712  80.9320 279.2069 14.34217293161319"
"2.0","GENERATED VIA SPACE-TRACK.ORG API","2020-11-07T17:57:51","18 SPCS","COSMOS 1818","1987-011A","EARTH","TEME","UTC","SGP4","2020-11-07T06:54:30.138048","14.31460140","0.00159480","65.0114","223.4832","285.8672","74.0654","0","U","17369","999","81570","0.00000146640000","-0.00000096","0.0000000000000","7164.991","100.596","798.283","775.429","PAYLOAD","LARGE","CIS","1987-02-01","TTMTR","","2874722","165084868","0 COSMOS 1818","1 17369U 87011A   20312.28784882 -.00000096 +00000-0 +14664-5 0  9990","2 17369 065.0114 223.4832 0015948 285.8672 074.0654 14.31460140815705"
"2.0","GENERATED VIA SPACE-TRACK.ORG API","2020-11-07T06:36:10","18 SPCS","COSMOS 1818","1987-011A","EARTH","TEME","UTC","SGP4","2020-11-07T03:33:17.700192","14.31460163","0.00159420","65.0114","223.8745","285.8583","74.0743","0","U","17369","999","81596","0.00000353790000","-0.00000091","0.0000000000000","7164.991","100.596","798.278","775.433","PAYLOAD","LARGE","CIS","1987-02-01","TTMTR","","2873992","165064415","0 COSMOS 1818","1 17369U 87011A   20312.14812153 -.00000091  00000-0  35379-5 0  9999","2 17369  65.0114 223.8745 0015942 285.8583  74.0743 14.31460163815969"
"2.0","GENERATED VIA SPACE-TRACK.ORG API","2020-11-07T02:25:42","18 SPCS","COSMOS 1818","1987-011A","EARTH","TEME","UTC","SGP4","2020-11-06T20:50:52.821888","14.31460180","0.00159320","65.0114","224.6570","285.8381","74.0947","0","U","17369","999","81564","0.00000392130000","-0.00000090","0.0000000000000","7164.991","100.596","798.271","775.440","PAYLOAD","LARGE","CIS","1987-02-01","TTMTR","","2873869","165024743","0 COSMOS 1818","1 17369U 87011A   20311.86866692 -.00000090 +00000-0 +39213-5 0  9994","2 17369 065.0114 224.6570 0015932 285.8381 074.0947 14.31460180815649"
"2.0","GENERATED VIA SPACE-TRACK.ORG API","2020-11-07T02:25:42","18 SPCS","IRIDIUM 136","2017-061H","EARTH","TEME","UTC","SGP4","2020-11-06T20:23:45.339648","14.34217577","0.00017080","86.3985","161.2602","79.7031","280.4357","0","U","42962","999","16124","0.00002254900000","0.00000083","0.0000000000000","7155.804","100.403","778.891","776.447","PAYLOAD","LARGE","US","2017-10-09","AFWTR","","2873869","165037792","0 IRIDIUM 136","1 42962U 17061H   20311.84983032 +.00000083 +00000-0 +22549-4 0  9999","2 42962 086.3985 161.2602 0001708 079.7031 280.4357 14.34217577161249"
"2.0","GENERATED VIA SPACE-TRACK.ORG API","2020-11-06T18:35:33","18 SPCS","COSMOS 1818","1987-011A","EARTH","TEME","UTC","SGP4","2020-11-06T12:27:51.732864","14.31460160","0.00159250","65.0114","225.6351","285.8547","74.0782","0","U","17369","999","81559","0.00000646310000","-0.00000083","0.0000000000000","7164.991","100.596","798.266","775.446","PAYLOAD","LARGE","CIS","1987-02-01","TTMTR","","2873392","164975271","0 COSMOS 1818","1 17369U 87011A   20311.51934876 -.00000083 +00000-0 +64631-5 0  9990","2 17369 065.0114 225.6351 0015925 285.8547 074.0782 14.31460160815592"
"2.0","GENERATED VIA SPACE-TRACK.ORG API","2020-11-06T14:26:10","18 SPCS","IRIDIUM 136","2017-061H","EARTH","TEME","UTC","SGP4","2020-11-06T07:00:01.276416","14.34220706","0.00016840","86.3985","161.4932","80.3542","279.7844","0","U","42962","999","16116","0.00002285700000","0.00000084","0.0000000000000","7155.794","100.402","778.864","776.454","PAYLOAD","LARGE","US","2017-10-09","AFWTR","","2872945","164963508","0 IRIDIUM 136","1 42962U 17061H   20311.29168144  .00000084  00000-0  22857-4 0  9990","2 42962  86.3985 161.4932 0001684  80.3542 279.7844 14.34220706161166"
